{
  "norad_id": 64291,
  "name": "STARLINK-34448",
  "history": [
    {
      "epoch": "2026-03-28T13:14:35.577888Z",
      "apogee_km": 574.138930757541,
      "perigee_km": 569.914621214497,
      "latitude_deg": 5.364140214007189e-05,
      "longitude_deg": 122.29796286656747,
      "height_km": 574.32296174864,
      "semi_major_axis_km": 6950.163775986019,
      "eccentricity": 0.0003039,
      "inclination_deg": 70.0016,
      "raan_deg": 146.9168,
      "arg_perigee_deg": 273.5668,
      "mean_anomaly_deg": 86.5144,
      "mean_motion_rev_day": 14.98339415
    }
  ]
}